FLOCK 4G-23             
1 62647U 25009AQ  26204.18126506  .00048199  00000+0  14026-2 0  9999
2 62647  97.3916 285.8901 0003486 155.7090 204.4318 15.35266203 84448
FLOCK 4G-34             
1 62650U 25009AT  26204.17149874  .00011371  00000+0  39522-3 0  9996
2 62650  97.3952 285.5827 0002943 145.5504 214.5928 15.29893650 84411
FLOCK 4G-21             
1 62651U 25009AU  26204.20438611  .00041476  00000+0  12854-2 0  9998
2 62651  97.3982 286.6606 0003721 169.9109 190.2209 15.33305766 84477
FLOCK 4G-31             
1 62652U 25009AV  26204.20241231  .00010550  00000+0  36913-3 0  9991
2 62652  97.3958 285.5833 0002529 144.4876 215.6533 15.29698126 84411
FLOCK 4G-4              
1 62659U 25009BC  26204.16081345  .00042170  00000+0  13367-2 0  9991
2 62659  97.3931 285.3837 0005197 168.2925 191.8439 15.32575782142011
FLOCK 4G-6              
1 62660U 25009BD  26204.12413585  .00010984  00000+0  37962-3 0  9990
2 62660  97.3928 285.3592 0003712 174.3390 185.7893 15.30087554141997
FLOCK 4G-2              
1 62661U 25009BE  26204.18127461  .00010996  00000+0  37583-3 0  9994
2 62661  97.3997 286.0695 0004530 174.0360 186.0936 15.30446725142036
FLOCK 4G-5              
1 62663U 25009BG  26204.17320752  .00008770  00000+0  29519-3 0  9990
2 62663  97.4018 286.4705 0004165 158.0225 202.1196 15.31007511 84440
FLOCK 4G-1              
1 62666U 25009BK  26204.16688429  .00013038  00000+0  44676-3 0  9994
2 62666  97.4010 286.0340 0004776 171.8657 188.2662 15.30317716 84415
FLOCK 4G-14             
1 62667U 25009BL  26204.20035303  .00010916  00000+0  37990-3 0  9990
2 62667  97.4015 285.8587 0005016 167.6811 192.4553 15.29856111 84404
FLOCK 4G-10             
1 62670U 25009BP  26204.14532820  .00011318  00000+0  39256-3 0  9997
2 62670  97.3912 285.0921 0004522 183.1642 176.9571 15.29959124142032
FLOCK 4G-36             
1 62675U 25009BU  26204.20538760  .00011368  00000+0  39451-3 0  9990
2 62675  97.4003 285.7851 0005118 172.2526 187.8795 15.29938075 84407
FLOCK 4G-15             
1 62678U 25009BX  26204.21179518  .00014576  00000+0  50295-3 0  9999
2 62678  97.4008 285.9361 0005221 170.7236 189.4102 15.30063694142053
FLOCK 4G-30             
1 62679U 25009BY  26204.19853459  .00044623  00000+0  13342-2 0  9997
2 62679  97.3899 285.4840 0004904 174.0458 186.0844 15.34424299142061
FLOCK 4G-18             
1 62680U 25009BZ  26204.15681917  .00042286  00000+0  13372-2 0  9999
2 62680  97.3994 285.8271 0006850 184.4758 175.6424 15.32642718142043
FLOCK 4G-17             
1 62681U 25009CA  26204.17189195  .00012511  00000+0  43024-3 0  9999
2 62681  97.3912 285.3592 0004858 184.9977 175.1216 15.30210537142052
