{"fetched_at":"2026-07-23T17:55:10.095Z","source":"https://celestrak.org/NORAD/elements/gp.php?GROUP=planet&FORMAT=JSON","constellation":"superdove","records":[{"OBJECT_NAME":"FLOCK 4G-23","OBJECT_ID":"2025-009AQ","EPOCH":"2026-07-23T04:21:01.301184","CLASSIFICATION_TYPE":"U","MEAN_MOTION":15.35266203,"ECCENTRICITY":0.00034869,"INCLINATION":97.3916,"RA_OF_ASC_NODE":285.8901,"ARG_OF_PERICENTER":155.709,"MEAN_ANOMALY":204.4318,"EPHEMERIS_TYPE":0,"NORAD_CAT_ID":62647,"ELEMENT_SET_NO":999,"REV_AT_EPOCH":8444,"BSTAR":0.0014025661,"MEAN_MOTION_DOT":0.00048199,"MEAN_MOTION_DDOT":0},{"OBJECT_NAME":"FLOCK 4G-34","OBJECT_ID":"2025-009AT","EPOCH":"2026-07-23T04:06:57.491136","CLASSIFICATION_TYPE":"U","MEAN_MOTION":15.2989365,"ECCENTRICITY":0.0002943,"INCLINATION":97.3952,"RA_OF_ASC_NODE":285.5827,"ARG_OF_PERICENTER":145.5504,"MEAN_ANOMALY":214.5928,"EPHEMERIS_TYPE":0,"NORAD_CAT_ID":62650,"ELEMENT_SET_NO":999,"REV_AT_EPOCH":8441,"BSTAR":0.00039522422,"MEAN_MOTION_DOT":0.00011371,"MEAN_MOTION_DDOT":0},{"OBJECT_NAME":"FLOCK 4G-21","OBJECT_ID":"2025-009AU","EPOCH":"2026-07-23T04:54:18.959904","CLASSIFICATION_TYPE":"U","MEAN_MOTION":15.33305766,"ECCENTRICITY":0.00037217,"INCLINATION":97.3982,"RA_OF_ASC_NODE":286.6606,"ARG_OF_PERICENTER":169.9109,"MEAN_ANOMALY":190.2209,"EPHEMERIS_TYPE":0,"NORAD_CAT_ID":62651,"ELEMENT_SET_NO":999,"REV_AT_EPOCH":8447,"BSTAR":0.0012854298,"MEAN_MOTION_DOT":0.00041476,"MEAN_MOTION_DDOT":0},{"OBJECT_NAME":"FLOCK 4G-31","OBJECT_ID":"2025-009AV","EPOCH":"2026-07-23T04:51:28.423584","CLASSIFICATION_TYPE":"U","MEAN_MOTION":15.29698126,"ECCENTRICITY":0.00025291,"INCLINATION":97.3958,"RA_OF_ASC_NODE":285.5833,"ARG_OF_PERICENTER":144.4876,"MEAN_ANOMALY":215.6533,"EPHEMERIS_TYPE":0,"NORAD_CAT_ID":62652,"ELEMENT_SET_NO":999,"REV_AT_EPOCH":8441,"BSTAR":0.00036913329,"MEAN_MOTION_DOT":0.0001055,"MEAN_MOTION_DDOT":0},{"OBJECT_NAME":"FLOCK 4G-4","OBJECT_ID":"2025-009BC","EPOCH":"2026-07-23T03:51:34.282080","CLASSIFICATION_TYPE":"U","MEAN_MOTION":15.32575782,"ECCENTRICITY":0.00051977,"INCLINATION":97.3931,"RA_OF_ASC_NODE":285.3837,"ARG_OF_PERICENTER":168.2925,"MEAN_ANOMALY":191.8439,"EPHEMERIS_TYPE":0,"NORAD_CAT_ID":62659,"ELEMENT_SET_NO":999,"REV_AT_EPOCH":14201,"BSTAR":0.001336737,"MEAN_MOTION_DOT":0.0004217,"MEAN_MOTION_DDOT":0},{"OBJECT_NAME":"FLOCK 4G-6","OBJECT_ID":"2025-009BD","EPOCH":"2026-07-23T02:58:45.337440","CLASSIFICATION_TYPE":"U","MEAN_MOTION":15.30087554,"ECCENTRICITY":0.00037121,"INCLINATION":97.3928,"RA_OF_ASC_NODE":285.3592,"ARG_OF_PERICENTER":174.339,"MEAN_ANOMALY":185.7893,"EPHEMERIS_TYPE":0,"NORAD_CAT_ID":62660,"ELEMENT_SET_NO":999,"REV_AT_EPOCH":14199,"BSTAR":0.00037961717,"MEAN_MOTION_DOT":0.00010984,"MEAN_MOTION_DDOT":0},{"OBJECT_NAME":"FLOCK 4G-2","OBJECT_ID":"2025-009BE","EPOCH":"2026-07-23T04:21:02.126304","CLASSIFICATION_TYPE":"U","MEAN_MOTION":15.30446725,"ECCENTRICITY":0.000453,"INCLINATION":97.3997,"RA_OF_ASC_NODE":286.0695,"ARG_OF_PERICENTER":174.036,"MEAN_ANOMALY":186.0936,"EPHEMERIS_TYPE":0,"NORAD_CAT_ID":62661,"ELEMENT_SET_NO":999,"REV_AT_EPOCH":14203,"BSTAR":0.00037582628,"MEAN_MOTION_DOT":0.00010996,"MEAN_MOTION_DDOT":0},{"OBJECT_NAME":"FLOCK 4G-5","OBJECT_ID":"2025-009BG","EPOCH":"2026-07-23T04:09:25.129728","CLASSIFICATION_TYPE":"U","MEAN_MOTION":15.31007511,"ECCENTRICITY":0.00041656,"INCLINATION":97.4018,"RA_OF_ASC_NODE":286.4705,"ARG_OF_PERICENTER":158.0225,"MEAN_ANOMALY":202.1196,"EPHEMERIS_TYPE":0,"NORAD_CAT_ID":62663,"ELEMENT_SET_NO":999,"REV_AT_EPOCH":8444,"BSTAR":0.00029519412,"MEAN_MOTION_DOT":0.0000877,"MEAN_MOTION_DDOT":0},{"OBJECT_NAME":"FLOCK 4G-1","OBJECT_ID":"2025-009BK","EPOCH":"2026-07-23T04:00:18.802656","CLASSIFICATION_TYPE":"U","MEAN_MOTION":15.30317716,"ECCENTRICITY":0.00047763,"INCLINATION":97.401,"RA_OF_ASC_NODE":286.034,"ARG_OF_PERICENTER":171.8657,"MEAN_ANOMALY":188.2662,"EPHEMERIS_TYPE":0,"NORAD_CAT_ID":62666,"ELEMENT_SET_NO":999,"REV_AT_EPOCH":8441,"BSTAR":0.00044675833,"MEAN_MOTION_DOT":0.00013038,"MEAN_MOTION_DDOT":0},{"OBJECT_NAME":"FLOCK 4G-14","OBJECT_ID":"2025-009BL","EPOCH":"2026-07-23T04:48:30.501792","CLASSIFICATION_TYPE":"U","MEAN_MOTION":15.29856111,"ECCENTRICITY":0.00050164,"INCLINATION":97.4015,"RA_OF_ASC_NODE":285.8587,"ARG_OF_PERICENTER":167.6811,"MEAN_ANOMALY":192.4553,"EPHEMERIS_TYPE":0,"NORAD_CAT_ID":62667,"ELEMENT_SET_NO":999,"REV_AT_EPOCH":8440,"BSTAR":0.0003799008,"MEAN_MOTION_DOT":0.00010916,"MEAN_MOTION_DDOT":0},{"OBJECT_NAME":"FLOCK 4G-10","OBJECT_ID":"2025-009BP","EPOCH":"2026-07-23T03:29:16.356480","CLASSIFICATION_TYPE":"U","MEAN_MOTION":15.29959124,"ECCENTRICITY":0.00045224,"INCLINATION":97.3912,"RA_OF_ASC_NODE":285.0921,"ARG_OF_PERICENTER":183.1642,"MEAN_ANOMALY":176.9571,"EPHEMERIS_TYPE":0,"NORAD_CAT_ID":62670,"ELEMENT_SET_NO":999,"REV_AT_EPOCH":14203,"BSTAR":0.00039255823,"MEAN_MOTION_DOT":0.00011318,"MEAN_MOTION_DDOT":0},{"OBJECT_NAME":"FLOCK 4G-36","OBJECT_ID":"2025-009BU","EPOCH":"2026-07-23T04:55:45.488640","CLASSIFICATION_TYPE":"U","MEAN_MOTION":15.29938075,"ECCENTRICITY":0.00051189,"INCLINATION":97.4003,"RA_OF_ASC_NODE":285.7851,"ARG_OF_PERICENTER":172.2526,"MEAN_ANOMALY":187.8795,"EPHEMERIS_TYPE":0,"NORAD_CAT_ID":62675,"ELEMENT_SET_NO":999,"REV_AT_EPOCH":8440,"BSTAR":0.00039450925,"MEAN_MOTION_DOT":0.00011368,"MEAN_MOTION_DDOT":0},{"OBJECT_NAME":"FLOCK 4G-15","OBJECT_ID":"2025-009BX","EPOCH":"2026-07-23T05:04:59.103552","CLASSIFICATION_TYPE":"U","MEAN_MOTION":15.30063694,"ECCENTRICITY":0.00052216,"INCLINATION":97.4008,"RA_OF_ASC_NODE":285.9361,"ARG_OF_PERICENTER":170.7236,"MEAN_ANOMALY":189.4102,"EPHEMERIS_TYPE":0,"NORAD_CAT_ID":62678,"ELEMENT_SET_NO":999,"REV_AT_EPOCH":14205,"BSTAR":0.00050294788,"MEAN_MOTION_DOT":0.00014576,"MEAN_MOTION_DDOT":0},{"OBJECT_NAME":"FLOCK 4G-30","OBJECT_ID":"2025-009BY","EPOCH":"2026-07-23T04:45:53.388576","CLASSIFICATION_TYPE":"U","MEAN_MOTION":15.34424299,"ECCENTRICITY":0.00049044,"INCLINATION":97.3899,"RA_OF_ASC_NODE":285.484,"ARG_OF_PERICENTER":174.0458,"MEAN_ANOMALY":186.0844,"EPHEMERIS_TYPE":0,"NORAD_CAT_ID":62679,"ELEMENT_SET_NO":999,"REV_AT_EPOCH":14206,"BSTAR":0.0013341686,"MEAN_MOTION_DOT":0.00044623,"MEAN_MOTION_DDOT":0},{"OBJECT_NAME":"FLOCK 4G-18","OBJECT_ID":"2025-009BZ","EPOCH":"2026-07-23T03:45:49.176288","CLASSIFICATION_TYPE":"U","MEAN_MOTION":15.32642718,"ECCENTRICITY":0.00068505,"INCLINATION":97.3994,"RA_OF_ASC_NODE":285.8271,"ARG_OF_PERICENTER":184.4758,"MEAN_ANOMALY":175.6424,"EPHEMERIS_TYPE":0,"NORAD_CAT_ID":62680,"ELEMENT_SET_NO":999,"REV_AT_EPOCH":14204,"BSTAR":0.0013371876,"MEAN_MOTION_DOT":0.00042286,"MEAN_MOTION_DDOT":0},{"OBJECT_NAME":"FLOCK 4G-17","OBJECT_ID":"2025-009CA","EPOCH":"2026-07-23T04:07:31.464480","CLASSIFICATION_TYPE":"U","MEAN_MOTION":15.30210537,"ECCENTRICITY":0.00048588,"INCLINATION":97.3912,"RA_OF_ASC_NODE":285.3592,"ARG_OF_PERICENTER":184.9977,"MEAN_ANOMALY":175.1216,"EPHEMERIS_TYPE":0,"NORAD_CAT_ID":62681,"ELEMENT_SET_NO":999,"REV_AT_EPOCH":14205,"BSTAR":0.00043023589,"MEAN_MOTION_DOT":0.00012511,"MEAN_MOTION_DDOT":0}]}
